{
  "links" : {
    "next" : "https://api.nasa.gov/neo/rest/v1/feed?start_date=2004-10-16&end_date=2004-10-16&detailed=true&api_key=t0TVs3DtDT2H8Oy2Zy8m2eVrNsAVKAexjcZXUckd",
    "prev" : "https://api.nasa.gov/neo/rest/v1/feed?start_date=2004-10-14&end_date=2004-10-14&detailed=true&api_key=t0TVs3DtDT2H8Oy2Zy8m2eVrNsAVKAexjcZXUckd",
    "self" : "https://api.nasa.gov/neo/rest/v1/feed?start_date=2004-10-15&end_date=2004-10-15&detailed=true&api_key=t0TVs3DtDT2H8Oy2Zy8m2eVrNsAVKAexjcZXUckd"
  },
  "element_count" : 9,
  "near_earth_objects" : {
    "2004-10-15" : [ {
      "links" : {
        "self" : "https://api.nasa.gov/neo/rest/v1/neo/2427684?api_key=t0TVs3DtDT2H8Oy2Zy8m2eVrNsAVKAexjcZXUckd"
      },
      "neo_reference_id" : "2427684",
      "name" : "427684 (2004 DH2)",
      "nasa_jpl_url" : "http://ssd.jpl.nasa.gov/sbdb.cgi?sstr=2427684",
      "absolute_magnitude_h" : 20.2,
      "estimated_diameter" : {
        "kilometers" : {
          "estimated_diameter_min" : 0.2424124811,
          "estimated_diameter_max" : 0.5420507863
        },
        "meters" : {
          "estimated_diameter_min" : 242.4124811008,
          "estimated_diameter_max" : 542.0507863358
        },
        "miles" : {
          "estimated_diameter_min" : 0.1506280858,
          "estimated_diameter_max" : 0.3368146392
        },
        "feet" : {
          "estimated_diameter_min" : 795.3165644948,
          "estimated_diameter_max" : 1778.3819018419
        }
      },
      "is_potentially_hazardous_asteroid" : false,
      "close_approach_data" : [ {
        "close_approach_date" : "2004-10-15",
        "epoch_date_close_approach" : 1097823600000,
        "relative_velocity" : {
          "kilometers_per_second" : "20.4975959532",
          "kilometers_per_hour" : "73791.3454316557",
          "miles_per_hour" : "45851.0723877974"
        },
        "miss_distance" : {
          "astronomical" : "0.4791810498",
          "lunar" : "186.4014282227",
          "kilometers" : "71684464",
          "miles" : "44542660"
        },
        "orbiting_body" : "Earth"
      } ],
      "orbital_data" : {
        "orbit_id" : "49",
        "orbit_determination_date" : "2017-04-06 09:21:00",
        "orbit_uncertainty" : "0",
        "minimum_orbit_intersection" : ".126373",
        "jupiter_tisserand_invariant" : "6.230",
        "epoch_osculation" : "2458000.5",
        "eccentricity" : ".4003533915530095",
        "semi_major_axis" : ".9441132172153399",
        "inclination" : "23.02188234060624",
        "ascending_node_longitude" : "157.3215776077222",
        "orbital_period" : "335.0692266639891",
        "perihelion_distance" : ".5661342886931554",
        "perihelion_argument" : "216.102460608301",
        "aphelion_distance" : "1.322092145737525",
        "perihelion_time" : "2457982.845382765258",
        "mean_anomaly" : "18.96820626526999",
        "mean_motion" : "1.074404843393786",
        "equinox" : "J2000"
      }
    }, {
      "links" : {
        "self" : "https://api.nasa.gov/neo/rest/v1/neo/3137736?api_key=t0TVs3DtDT2H8Oy2Zy8m2eVrNsAVKAexjcZXUckd"
      },
      "neo_reference_id" : "3137736",
      "name" : "(2002 TY59)",
      "nasa_jpl_url" : "http://ssd.jpl.nasa.gov/sbdb.cgi?sstr=3137736",
      "absolute_magnitude_h" : 25.5,
      "estimated_diameter" : {
        "kilometers" : {
          "estimated_diameter_min" : 0.0211132445,
          "estimated_diameter_max" : 0.0472106499
        },
        "meters" : {
          "estimated_diameter_min" : 21.113244479,
          "estimated_diameter_max" : 47.2106498806
        },
        "miles" : {
          "estimated_diameter_min" : 0.0131191578,
          "estimated_diameter_max" : 0.0293353287
        },
        "feet" : {
          "estimated_diameter_min" : 69.2691770164,
          "estimated_diameter_max" : 154.8905885541
        }
      },
      "is_potentially_hazardous_asteroid" : false,
      "close_approach_data" : [ {
        "close_approach_date" : "2004-10-15",
        "epoch_date_close_approach" : 1097823600000,
        "relative_velocity" : {
          "kilometers_per_second" : "18.7081073452",
          "kilometers_per_hour" : "67349.1864425983",
          "miles_per_hour" : "41848.1653204023"
        },
        "miss_distance" : {
          "astronomical" : "0.3596898203",
          "lunar" : "139.919342041",
          "kilometers" : "53808832",
          "miles" : "33435258"
        },
        "orbiting_body" : "Earth"
      } ],
      "orbital_data" : {
        "orbit_id" : "17",
        "orbit_determination_date" : "2017-04-06 09:14:47",
        "orbit_uncertainty" : "6",
        "minimum_orbit_intersection" : ".00277645",
        "jupiter_tisserand_invariant" : "5.963",
        "epoch_osculation" : "2458000.5",
        "eccentricity" : ".2334692518954883",
        "semi_major_axis" : "1.018567987164902",
        "inclination" : "6.610513706423017",
        "ascending_node_longitude" : "9.802023413328852",
        "orbital_period" : "375.4771049212962",
        "perihelion_distance" : ".7807636811968187",
        "perihelion_argument" : "259.1745027880588",
        "aphelion_distance" : "1.256372293132985",
        "perihelion_time" : "2458109.202686697564",
        "mean_anomaly" : "255.7780202888117",
        "mean_motion" : ".9587801633749669",
        "equinox" : "J2000"
      }
    }, {
      "links" : {
        "self" : "https://api.nasa.gov/neo/rest/v1/neo/3775095?api_key=t0TVs3DtDT2H8Oy2Zy8m2eVrNsAVKAexjcZXUckd"
      },
      "neo_reference_id" : "3775095",
      "name" : "(2017 KW31)",
      "nasa_jpl_url" : "http://ssd.jpl.nasa.gov/sbdb.cgi?sstr=3775095",
      "absolute_magnitude_h" : 26.526,
      "estimated_diameter" : {
        "kilometers" : {
          "estimated_diameter_min" : 0.0131630029,
          "estimated_diameter_max" : 0.0294333692
        },
        "meters" : {
          "estimated_diameter_min" : 13.1630028888,
          "estimated_diameter_max" : 29.4333692473
        },
        "miles" : {
          "estimated_diameter_min" : 0.0081791083,
          "estimated_diameter_max" : 0.0182890421
        },
        "feet" : {
          "estimated_diameter_min" : 43.1857063975,
          "estimated_diameter_max" : 96.5661751612
        }
      },
      "is_potentially_hazardous_asteroid" : false,
      "close_approach_data" : [ {
        "close_approach_date" : "2004-10-15",
        "epoch_date_close_approach" : 1097823600000,
        "relative_velocity" : {
          "kilometers_per_second" : "10.6877143067",
          "kilometers_per_hour" : "38475.7715039634",
          "miles_per_hour" : "23907.3481325599"
        },
        "miss_distance" : {
          "astronomical" : "0.0782123163",
          "lunar" : "30.4245891571",
          "kilometers" : "11700396",
          "miles" : "7270289"
        },
        "orbiting_body" : "Earth"
      } ],
      "orbital_data" : {
        "orbit_id" : "5",
        "orbit_determination_date" : "2017-06-06 06:20:37",
        "orbit_uncertainty" : "6",
        "minimum_orbit_intersection" : ".00101526",
        "jupiter_tisserand_invariant" : "4.681",
        "epoch_osculation" : "2458000.5",
        "eccentricity" : ".39201856131743",
        "semi_major_axis" : "1.393348008500715",
        "inclination" : "5.913391327476085",
        "ascending_node_longitude" : "69.09138346309462",
        "orbital_period" : "600.7417684410353",
        "perihelion_distance" : ".8471297267937586",
        "perihelion_argument" : "245.8779348504409",
        "aphelion_distance" : "1.939566290207672",
        "perihelion_time" : "2457954.514039913526",
        "mean_anomaly" : "27.55750723658181",
        "mean_motion" : ".5992591474606865",
        "equinox" : "J2000"
      }
    } ]
  }
}